NORAD_CAT_ID,OBJECT_NAME,OBJECT_TYPE,EPOCH,MEAN_MOTION,ECCENTRICITY,INCLINATION,RA_OF_ASC_NODE,ARG_OF_PERICENTER,MEAN_ANOMALY,BSTAR,MEAN_MOTION_DOT,MEAN_MOTION_DDOT,TLE_LINE0,TLE_LINE1,TLE_LINE2,SEMIMAJOR_AXIS,PERIOD,APOGEE,PERIGEE,DECAYED
52102.0,STARLINK-3709,PAYLOAD,2022-09-04 20:00:01,15.08838411,0.0001955,53.2173,73.5862,63.2536,192.8811,0.00025594,3.787e-05,0.0,0 STARLINK-3709,1 52102U 22029Q   22247.83334491  .00003787  00000-0  25594-3 0  9990,2 52102  53.2173  73.5862 0001955  63.2536 192.8811 15.08838411  1302,6917.885,95.438,541.1030000000002,538.398,0.0
52102.0,STARLINK-3709,PAYLOAD,2022-09-05 04:00:00,15.0886261,0.0001818,53.2174,72.0891,62.2397,205.4912,-0.0034571999999999,-0.00054925,0.0,0 STARLINK-3709,1 52102U 22029Q   22248.16667824 -.00054925  00000-0 -34572-2 0  9993,2 52102  53.2174  72.0891 0001818  62.2397 205.4912 15.08862610 27311,6917.811,95.436,540.934,538.419,0.0
52102.0,STARLINK-3709,PAYLOAD,2022-09-05 14:00:01,15.08849075,0.000178,53.2178,70.2181,67.0668,305.1499,-0.0004348,-7.203e-05,0.0,0 STARLINK-3709,1 52102U 22029Q   22248.58334491 -.00007203  00000-0 -43480-3 0  9996,2 52102  53.2178  70.2181 0001780  67.0668 305.1499 15.08849075 27384,6917.853,95.437,540.9490000000002,538.486,0.0
52102.0,STARLINK-3709,PAYLOAD,2022-09-05 22:00:00,15.08822164,0.0001841999999999,53.2178,68.7234,59.5966,324.2258,0.00030181,4.516e-05,0.0,0 STARLINK-3709,1 52102U 22029Q   22248.91667824  .00004516  00000-0  30181-3 0  9998,2 52102  53.2178  68.7234 0001842  59.5966 324.2258 15.08822164  1300,6917.935,95.439,541.0740000000002,538.526,0.0
52102.0,STARLINK-3709,PAYLOAD,2022-09-06 14:00:01,15.08845339,0.0001706,53.2181,65.7292,65.3557,341.6173,-0.00070525,-0.00011496,0.0,0 STARLINK-3709,1 52102U 22029Q   22249.58334491 -.00011496  00000-0 -70525-3 0  9996,2 52102  53.2181  65.7292 0001706  65.3557 341.6173 15.08845339  1303,6917.864000000001,95.437,540.909,538.549,0.0
52102.0,STARLINK-3709,PAYLOAD,2022-09-06 22:00:00,15.08824133,0.0001766999999999,53.218,64.2343,57.9813,0.5885,0.0011654,0.000183,0.0,0 STARLINK-3709,1 52102U 22029Q   22249.91667824  .00018300  00000-0  11654-2 0  9998,2 52102  53.2180  64.2343 0001767  57.9813   0.5885 15.08824133 27580,6917.929,95.439,541.016,538.571,0.0
52102.0,STARLINK-3709,PAYLOAD,2022-09-07 14:00:01,15.08838824,0.0001588,53.2181,61.2401,64.178,17.5474,-0.0011674,-0.00018819,0.0,0 STARLINK-3709,1 52102U 22029Q   22250.58334491 -.00018819  00000-0 -11674-2 0  9993,2 52102  53.2181  61.2401 0001588  64.1780  17.5474 15.08838824 27682,6917.884,95.438,540.8480000000002,538.65,0.0
52102.0,STARLINK-3709,PAYLOAD,2022-09-07 22:00:00,15.08806257,0.0001669,53.2179,59.745,56.7735,36.5431,0.0031496,0.00050148,0.0,0 STARLINK-3709,1 52102U 22029Q   22250.91667824  .00050148  00000-0  31496-2 0  9992,2 52102  53.2179  59.7450 0001669  56.7735  36.5431 15.08806257  1302,6917.984,95.44,541.003,538.694,0.0
52102.0,STARLINK-3709,PAYLOAD,2022-09-08 06:00:00,15.0882761,0.0001514,53.2179,58.2469,63.4106,41.4918,0.0013783,0.00021708,0.0,0 STARLINK-3709,1 52102U 22029Q   22251.25001157  .00021708  00000-0  13783-2 0  9990,2 52102  53.2179  58.2469 0001514  63.4106  41.4918 15.08827610 27783,6917.918000000002,95.438,540.831,538.736,0.0
52102.0,STARLINK-3709,PAYLOAD,2022-09-08 14:00:01,15.08860504,0.0001559,53.2179,56.7509,64.6857,51.7991,-0.0013984,-0.00022487,0.0,0 STARLINK-3709,1 52102U 22029Q   22251.58334491 -.00022487  00000-0 -13984-2 0  9996,2 52102  53.2179  56.7509 0001559  64.6857  51.7991 15.08860504  1300,6917.818,95.436,540.761,538.604,0.0
52102.0,STARLINK-3709,PAYLOAD,2022-09-08 22:00:00,15.08840545,0.0001602,53.2176,55.2557,56.2969,71.8044,0.0005347,8.232e-05,0.0,0 STARLINK-3709,1 52102U 22029Q   22251.91667824  .00008232  00000-0  53470-3 0  9997,2 52102  53.2176  55.2557 0001602  56.2969  71.8044 15.08840545  1309,6917.879,95.438,540.852,538.635,0.0
52102.0,STARLINK-3709,PAYLOAD,2022-09-09 06:00:00,15.0881835,0.0001388,53.2175,53.7574,62.1251,77.586,0.0018267,0.00028886,0.0,0 STARLINK-3709,1 52102U 22029Q   22252.25001157  .00028886  00000-0  18267-2 0  9997,2 52102  53.2175  53.7574 0001388  62.1251  77.5860 15.08818350 27936,6917.946999999999,95.439,540.7719999999998,538.851,0.0
52102.0,STARLINK-3709,PAYLOAD,2022-09-09 14:00:01,15.088572,0.000147,53.2177,52.2617,63.0761,88.2142,-0.0013628,-0.00021922,0.0,0 STARLINK-3709,1 52102U 22029Q   22252.58334491 -.00021922  00000-0 -13628-2 0  9995,2 52102  53.2177  52.2617 0001470  63.0761  88.2142 15.08857200  1300,6917.828,95.436,540.71,538.6759999999998,0.0
52102.0,STARLINK-3709,PAYLOAD,2022-09-09 22:00:00,15.0884005,0.000161,53.2172,50.7668,55.9358,106.9629,-0.00024684,-4.214e-05,0.0,0 STARLINK-3709,1 52102U 22029Q   22252.91667824 -.00004214  00000-0 -24684-3 0  9991,2 52102  53.2172  50.7668 0001610  55.9358 106.9629 15.08840050  1305,6917.88,95.438,540.859,538.631,0.0
52102.0,STARLINK-3709,PAYLOAD,2022-09-10 04:00:00,15.08833952,0.000155,53.2174,49.6426,62.9348,18.6651,-0.00070423,-0.00011476,0.0,0 STARLINK-3709,1 52102U 22029Q   22253.16667824 -.00011476  00000-0 -70423-3 0  9999,2 52102  53.2174  49.6426 0001550  62.9348  18.6651 15.08833952 28076,6917.899,95.438,540.836,538.692,0.0
52102.0,STARLINK-3709,PAYLOAD,2022-09-10 14:00:01,15.08852428,0.0001592,53.2175,47.7726,63.7614,122.317,-0.0011576,-0.0001867,0.0,0 STARLINK-3709,1 52102U 22029Q   22253.58334491 -.00018670  00000-0 -11576-2 0  9992,2 52102  53.2175  47.7726 0001592  63.7614 122.3170 15.08852428  1305,6917.842,95.437,540.809,538.606,0.0
52102.0,STARLINK-3709,PAYLOAD,2022-09-10 22:00:00,15.08832882,0.0001612,53.2173,46.2771,55.7043,141.9736,-0.00029802,-5.027e-05,0.0,0 STARLINK-3709,1 52102U 22029Q   22253.91667824 -.00005027  00000-0 -29802-3 0  9992,2 52102  53.2173  46.2771 0001612  55.7043 141.9736 15.08832882 28189,6917.901999999999,95.438,540.882,538.6519999999998,0.0
52102.0,STARLINK-3709,PAYLOAD,2022-09-11 14:00:01,15.08849949,0.0001549,53.2178,43.2835,59.7608,161.0884,-0.00091625,-0.00014844,0.0,0 STARLINK-3709,1 52102U 22029Q   22254.58334491 -.00014844  00000-0 -91625-3 0  9996,2 52102  53.2178  43.2835 0001549  59.7608 161.0884 15.08849949  1306,6917.85,95.437,540.7869999999998,538.643,0.0
52102.0,STARLINK-3709,PAYLOAD,2022-09-11 22:00:00,15.08845741,0.0001579,53.2178,41.788,51.9535,180.4931,-0.00067195,-0.00010968,0.0,0 STARLINK-3709,1 52102U 22029Q   22254.91667824 -.00010968  00000-0 -67195-3 0  9990,2 52102  53.2178  41.7880 0001579  51.9535 180.4931 15.08845741 28331,6917.863,95.437,540.82,538.636,0.0
52102.0,STARLINK-3709,PAYLOAD,2022-09-12 14:00:01,15.08856842,0.0001548,53.2184,38.7946,55.4314,200.2031,-0.00098664,-0.00015963,0.0,0 STARLINK-3709,1 52102U 22029Q   22255.58334491 -.00015963  00000-0 -98664-3 0  9990,2 52102  53.2184  38.7946 0001548  55.4314 200.2031 15.08856842  1301,6917.829000000002,95.436,540.765,538.623,0.0
52102.0,STARLINK-3709,PAYLOAD,2022-09-12 22:00:00,15.08849308,0.000167,53.2184,37.299,50.1457,217.0969,-0.0010302,-0.0001665,0.0,0 STARLINK-3709,1 52102U 22029Q   22255.91667824 -.00016650  00000-0 -10302-2 0  9992,2 52102  53.2184  37.2990 0001670  50.1457 217.0969 15.08849308  1305,6917.852,95.437,540.872,538.562,0.0
52102.0,STARLINK-3709,PAYLOAD,2022-09-13 14:00:01,15.0883385,0.0001626999999999,53.219,34.3058,53.2464,237.1839,-0.00047738,-7.876e-05,0.0,0 STARLINK-3709,1 52102U 22029Q   22256.58334491 -.00007876  00000-0 -47738-3 0  9991,2 52102  53.2190  34.3058 0001627  53.2464 237.1839 15.08833850  1303,6917.899,95.438,540.89,538.639,0.0
52102.0,STARLINK-3709,PAYLOAD,2022-09-13 22:00:00,15.08839221,0.0001713,53.219,32.8102,49.283,252.7116,-0.0017660999999999,-0.00028285,0.0,0 STARLINK-3709,1 52102U 22029Q   22256.91667824 -.00028285  00000-0 -17661-2 0  9995,2 52102  53.2190  32.8102 0001713  49.2830 252.7116 15.08839221  1303,6917.8830000000025,95.438,540.933,538.563,0.0
52102.0,STARLINK-3709,PAYLOAD,2022-09-14 06:00:00,15.08790336,0.0001631999999999,53.2193,31.3123,58.0446,255.552,0.0037070999999999,0.00059125,0.0,0 STARLINK-3709,1 52102U 22029Q   22257.25001157  .00059125  00000-0  37071-2 0  9996,2 52102  53.2193  31.3123 0001632  58.0446 255.5520 15.08790336 28687,6918.031999999997,95.441,541.026,538.768,0.0
52102.0,STARLINK-3709,PAYLOAD,2022-09-14 14:00:01,15.08838592,0.0001748,53.2195,29.8174,54.3613,270.7955,-0.00055503,-9.11e-05,0.0,0 STARLINK-3709,1 52102U 22029Q   22257.58334491 -.00009110  00000-0 -55503-3 0  9994,2 52102  53.2195  29.8174 0001748  54.3613 270.7955 15.08838592  1308,6917.885,95.438,540.9590000000002,538.54,0.0
52102.0,STARLINK-3709,PAYLOAD,2022-09-14 22:00:00,15.08856794,0.0001742,53.2192,28.3214,49.2651,287.4754,-0.0019089,-0.00030554,0.0,0 STARLINK-3709,1 52102U 22029Q   22257.91667824 -.00030554  00000-0 -19089-2 0  9994,2 52102  53.2192  28.3214 0001742  49.2651 287.4754 15.08856794  1309,6917.829000000002,95.436,540.899,538.489,0.0
52102.0,STARLINK-3709,PAYLOAD,2022-09-15 14:00:01,15.08854553,0.0001634,53.2195,25.3288,50.6082,309.3195,-0.0012102999999999,-0.00019506,0.0,0 STARLINK-3709,1 52102U 22029Q   22258.58334491 -.00019506  00000-0 -12103-2 0  9993,2 52102  53.2195  25.3288 0001634  50.6082 309.3195 15.08854553  1308,6917.8359999999975,95.437,540.831,538.571,0.0
52102.0,STARLINK-3709,PAYLOAD,2022-09-15 17:10:50,15.08834834,0.0001545,53.2201,24.7339,52.3014,307.8118,2.3344e-05,8.4e-07,0.0,0 STARLINK-3709,1 52102U 22029Q   22258.71585660  .00000084  00000-0  23344-4 0  9994,2 52102  53.2201  24.7339 0001545  52.3014 307.8118 15.08834834 28915,6917.896,95.438,540.83,538.692,0.0
52102.0,STARLINK-3709,PAYLOAD,2022-09-16 10:40:04,15.08831554,0.0001659,53.221,21.4639,61.1423,298.9736,7.2655e-05,8.68e-06,0.0,0 STARLINK-3709,1 52102U 22029Q   22259.44450032  .00000868  00000-0  72655-4 0  9998,2 52102  53.2210  21.4639 0001659  61.1423 298.9736 15.08831554 29025,6917.906,95.438,540.919,538.624,0.0
